SL-16 R/B               
1 19650U 88102B   25104.03275316  .00000162  00000+0  10586-3 0  9990
2 19650  70.9968 125.0932 0013466 161.5338 198.6276 14.16091523880503
INTERCOSMOS 24          
1 20261U 89080A   25103.59794401  .00000977  00000+0  28782-3 0  9998
2 20261  82.6050 319.0657 1190498 338.4941  16.9856 12.58941877625256
SL-14 R/B               
1 20262U 89080C   25103.80198973  .00000387  00000+0  11503-3 0  9993
2 20262  82.5988  24.9968 1230572 218.6655 131.9816 12.50259250618921
DELTA 1 R/B             
1 20323U 89089B   25103.73980813  .00000840  00000+0  21723-3 0  9993
2 20323  97.1119 358.0222 0070949  84.6842 276.2446 14.50327427847907
ARIANE 40 R/B           
1 20443U 90005H   25104.18398532  .00000731  00000+0  24763-3 0  9993
2 20443  98.3506 168.7989 0011417 114.0798 246.1586 14.39580939845659
DELTA 2 R/B(1)          
1 20453U 90008B   25103.76284598  .00032120  00000+0  79041-3 0  9992
2 20453  35.6106 128.5498 0148062 147.0548 213.9509 15.29053788875247
COSMOS 2058             
1 20465U 90010A   25103.71356433  .00007252  00000+0  46403-3 0  9995
2 20465  82.4900  11.4810 0012035  23.3931 336.7843 15.08384719892457
SL-14 R/B               
1 20466U 90010B   25104.16657032  .00001062  00000+0  12700-3 0  9991
2 20466  82.5045 216.7555 0018705 308.4554  51.4982 14.83191432900694
SL-14 R/B               
1 20511U 90018B   25103.73363203  .00000861  00000+0  10593-3 0  9990
2 20511  82.5234 171.4209 0017941  97.3268 262.9986 14.81779362873712
HST                     
1 20580U 90037B   25104.17171204  .00009507  00000+0  36811-3 0  9991
2 20580  28.4666 118.5846 0002299 110.7701 249.3139 15.24425514723164
SL-16 R/B               
1 20625U 90046B   25103.70098756  .00000261  00000+0  15929-3 0  9994
2 20625  70.9982 270.9085 0012075  85.6962 274.5540 14.14957953801716
COSMOS 2084             
1 20663U 90055A   25103.82968308  .00005346  00000+0  38727-3 0  9998
2 20663  62.7928  18.4531 0071089 147.9789 212.5661 15.03157126886696
SL-6 R/B(2)             
1 20666U 90055D   25103.88327060  .00004695  00000+0  36962-3 0  9996
2 20666  62.7837 293.6306 0037184 178.6351 181.4855 15.01647838888636
SL-8 R/B                
1 20775U 90078B   25103.62157537  .00025671  00000+0  86337-3 0  9992
2 20775  82.9121 184.9901 0409960  33.5998 329.0496 14.76499385760409
SL-8 R/B                
1 21088U 91006B   25103.65394455  .00000086  00000+0  71196-4 0  9998
2 21088  82.9429  55.5560 0021186 238.0430 295.6465 13.77444892718630
OKEAN-3                 
1 21397U 91039A   25103.90331795  .00004938  00000+0  37113-3 0  9993
2 21397  82.5146 295.7060 0014957  18.4102 341.7661 15.02295402815485
COSMOS 2151             
1 21422U 91042A   25103.78963887  .00004146  00000+0  34341-3 0  9996
2 21422  82.5001  41.4187 0014486  93.4103 266.8778 14.98557485813762
SL-14 R/B               
1 21423U 91042B   25104.12420389  .00000824  00000+0  10206-3 0  9994
2 21423  82.4950 169.1634 0015759 241.3519 118.6110 14.81481765825316
ERS-1                   
1 21574U 91050A   25104.04015055  .00000674  00000+0  23115-3 0  9997
2 21574  98.7937 108.9423 0033360  99.6759 260.8198 14.39138306768295
ARIANE 40 R/B           
1 21610U 91050F   25103.62551809  .00000787  00000+0  24970-3 0  9998
2 21610  98.2453 162.3793 0003104  19.5986 340.5323 14.42571406771403
INTERCOSMOS 25          
1 21819U 91086A   25103.62827933  .00002426  00000+0  46932-3 0  9996
2 21819  82.6026 149.4014 1493058 107.8421 269.0779 12.10731256456725
SL-8 R/B                
1 21876U 92008B   25103.66513160  .00000169  00000+0  15790-3 0  9992
2 21876  82.9272 153.2154 0034022 338.8169 140.2520 13.75916159664036
SL-8 R/B                
1 21938U 92020B   25103.54470499  .00000104  00000+0  91818-4 0  9994
2 21938  82.9331  38.9482 0029927 137.2076  36.2440 13.75494336655741
USA 81                  
1 21949U 92023A   25104.12168207  .00000343  00000+0  11994-3 0  9996
2 21949  85.0067 321.5628 0002172  67.8821 292.2601 14.32216512 47611
COSMOS 2219             
1 22219U 92076A   25103.65991706  .00000006  00000+0  27698-4 0  9995
2 22219  71.0613 347.9428 0018583 338.0555  21.9770 14.14010003671720
SL-16 R/B               
1 22220U 92076B   25103.65592354  .00000334  00000+0  19071-3 0  9992
2 22220  70.9997 163.5504 0014839 242.6368 285.7643 14.16795074675086
COSMOS 2221             
1 22236U 92080A   25103.74338775  .00003792  00000+0  34773-3 0  9996
2 22236  82.5054 234.6151 0014140 215.5719 144.4561 14.94584922731489
SL-16 R/B               
1 22285U 92093B   25103.63161491 -.00000039  00000+0  44509-5 0  9993
2 22285  71.0226 337.1118 0002079  94.0755 266.0606 14.15382771666453
COSMOS 2228             
1 22286U 92094A   25103.82527915  .00003840  00000+0  34433-3 0  9998
2 22286  82.5213 192.6544 0017677 336.1382  23.9017 14.95414522747803
SL-16 R/B               
1 22566U 93016B   25103.71024406  .00000167  00000+0  11025-3 0  9990
2 22566  71.0076 188.2038 0008281 110.5985 249.6027 14.15249567655484
COSMOS 2242             
1 22626U 93024A   25103.74531537  .00004798  00000+0  43713-3 0  9990
2 22626  82.5212 221.7938 0016020 338.8584  21.1973 14.94868384731076
SL-16 R/B               
1 22803U 93059B   25103.64283533  .00000307  00000+0  17560-3 0  9997
2 22803  70.9922 347.0944 0017502 346.0308  14.0329 14.17162353632773
ARIANE 40 R/B           
1 22830U 93061H   25104.13969195  .00000530  00000+0  21099-3 0  9990
2 22830  98.5303 173.7247 0011008 173.1493 186.9843 14.32617162647160
COSMOS 2278             
1 23087U 94023A   25103.51847777  .00000294  00000+0  17867-3 0  9991
2 23087  71.0511 145.8286 0009093 186.2123 173.8889 14.14278048598123
SL-16 R/B               
1 23088U 94023B   25104.21365967  .00000359  00000+0  21041-3 0  9997
2 23088  71.0015  42.7818 0001246  60.0821 300.0425 14.14958777599759
SL-16 R/B               
1 23343U 94074B   25104.14922360  .00001064  00000+0  15088-3 0  9993
2 23343  97.7463 142.6876 0005993 201.8959 207.2523 14.78955971638742
SL-16 R/B               
1 23405U 94077B   25103.61704641 -.00000171  00000+0 -63098-4 0  9991
2 23405  70.9838 326.8686 0004708 288.6378  71.4234 14.15508521569521
ARIANE 40+ R/B          
1 23561U 95021B   25103.83106749  .00000684  00000+0  23362-3 0  9999
2 23561  98.4869 174.0138 0007668  57.3058  78.3626 14.39474522571783
SL-16 R/B               
1 23705U 95058B   25103.53690097  .00000259  00000+0  15712-3 0  9998
2 23705  71.0199 153.3781 0014756 263.5464  96.3979 14.15438563521132
SL-16 R/B               
1 24298U 96051B   25103.57014437 -.00000117  00000+0 -36846-4 0  9999
2 24298  70.7716 153.8443 0018306 263.6275  96.2760 14.12430732475038
ORBVIEW 2 (SEASTAR)     
1 24883U 97037A   25103.69145237  .00000685  00000+0  25584-3 0  9994
2 24883  98.8167 255.0915 0001459 338.7495  21.3629 14.35195294461132
SL-16 R/B               
1 25400U 98043G   25103.88190035  .00000185  00000+0  96309-4 0  9994
2 25400  98.7830  50.8229 0008788 249.5121 110.5115 14.25954634391986
SL-16 R/B               
1 25407U 98045B   25103.56817997 -.00000162  00000+0 -57565-4 0  9999
2 25407  71.0101 155.7808 0007404 187.3618 172.7398 14.16130081380365
ISS (ZARYA)             
1 25544U 98067A   25104.50531416  .00015135  00000+0  27701-3 0  9991
2 25544  51.6376 262.4432 0005260  42.5292  63.9496 15.49539249505288
CZ-4B R/B               
1 25732U 99025C   25103.78316222  .00000162  00000+0  99381-4 0  9998
2 25732  98.7067 150.0167 0036610 211.6319 274.4588 14.18170219341401
OKEAN-O                 
1 25860U 99039A   25103.58523501  .00001582  00000+0  21770-3 0  9996
2 25860  97.9896 160.9614 0001160  71.4137 288.7200 14.79676305385561
SL-16 R/B               
1 25861U 99039B   25103.61787253  .00001262  00000+0  16904-3 0  9995
2 25861  98.0425 157.2995 0013687 245.0618 114.9172 14.81173073387997
DELTA 2 R/B             
1 25876U 99041E   25103.68861214  .00002024  00000+0  36649-3 0  9996
2 25876  51.7602 177.9234 0508304  95.4402 270.4707 14.10581865316431
HELIOS 1B               
1 25977U 99064A   25103.76830413  .00002909  00000+0  33740-3 0  9990
2 25977  98.2034 351.1271 0002469  75.4349 284.7139 14.86256045636236
TERRA                   
1 25994U 99068A   25104.17714116  .00001107  00000+0  23668-3 0  9997
2 25994  98.0036 164.3004 0003427 124.9801 261.1687 14.60622546347096
SL-16 R/B               
1 26070U 00006B   25103.92219723  .00000091  00000+0  70350-4 0  9995
2 26070  71.0018  71.1861 0018100 317.6663  42.3062 14.15767163301888
TITAN 4B R/B            
1 26474U 00047B   25103.79450625  .00007098  00000+0  47687-3 0  9991
2 26474  67.9907 245.9456 0039975  47.1621 313.2874 15.06671833343178
ENVISAT                 
1 27386U 02009A   25104.14629834  .00000304  00000+0  11250-3 0  9994
2 27386  98.3284  61.5480 0001213  83.4888 287.4462 14.38893211211852
IDEFIX & ARIANE 42P R/B 
1 27422U 02021B   25103.85916499  .00000701  00000+0  28425-3 0  9995
2 27422  98.5576  42.1051 0013135  79.3903 280.8758 14.30739412196857
AQUA                    
1 27424U 02022A   25104.19447903  .00002258  00000+0  46884-3 0  9993
2 27424  98.3728  61.7672 0000877 101.6194  23.0852 14.61129572220643
CZ-4B R/B               
1 27432U 02024C   25103.60919594  .00000135  00000+0  92926-4 0  9990
2 27432  98.9304 152.7446 0049318 239.0826 243.7175 14.14471025182578
MIDORI II (ADEOS-II)    
1 27597U 02056A   25103.83627388  .00000781  00000+0  32651-3 0  9994
2 27597  98.7330  56.0348 0000453 135.4433 224.6785 14.28985911163184
H-2A R/B                
1 27601U 02056E   25104.19679764  .00000845  00000+0  31161-3 0  9991
2 27601  98.2743  73.1359 0071796  64.2254 307.3256 14.33447223166880
CZ-4B R/B               
1 28059U 03049C   25103.52521217  .00000852  00000+0  20801-3 0  9994
2 28059  98.6554  81.2697 0048905 158.0309 202.2998 14.54607352138593
CZ-2C R/B               
1 28222U 04012C   25104.04480317  .00029210  00000+0  68696-3 0  9993
2 28222  97.7735 139.1812 0026294  69.9247 290.4825 15.41577260153211
